OBJECT B                
1 51825U 22019B   24348.78762551  .00018543  00000+0  62748-3 0  9997
2 51825  97.4107  58.7215 0011393 330.2702  29.7890 15.30595817154619
